[{"OBJECT_NAME":"YAOGAN-36 02A","OBJECT_ID":"2022-133A","EPOCH":"2026-03-10T00:04:36.049728","MEAN_MOTION":15.23118612,"ECCENTRICITY":0.00301484,"INCLINATION":35.0077,"RA_OF_ASC_NODE":23.5078,"ARG_OF_PERICENTER":29.898,"MEAN_ANOMALY":330.345,"EPHEMERIS_TYPE":0,"CLASSIFICATION_TYPE":"U","NORAD_CAT_ID":54042,"ELEMENT_SET_NO":999,"REV_AT_EPOCH":18962,"BSTAR":0.00070143583,"MEAN_MOTION_DOT":0.00017174,"MEAN_MOTION_DDOT":0},{"OBJECT_NAME":"STARLINK-35974","OBJECT_ID":"2025-281Q","EPOCH":"2026-03-09T03:41:41.873568","MEAN_MOTION":15.27571682,"ECCENTRICITY":0.00018218,"INCLINATION":43.0029,"RA_OF_ASC_NODE":346.4961,"ARG_OF_PERICENTER":265.8098,"MEAN_ANOMALY":94.2545,"EPHEMERIS_TYPE":0,"CLASSIFICATION_TYPE":"U","NORAD_CAT_ID":66862,"ELEMENT_SET_NO":999,"REV_AT_EPOCH":1610,"BSTAR":0.0011520303,"MEAN_MOTION_DOT":0.00031567,"MEAN_MOTION_DDOT":0}]
